ONEWEB-0645             
1 55809U 23029P   25187.89570013  .00000011  00000+0 -51258-5 0  9997
2 55809  87.9218  13.6345 0002098  98.3006 261.8365 13.19726581113369
ONEWEB-0646             
1 55810U 23029Q   25188.07733856 -.00000101  00000+0 -28485-3 0  9991
2 55810  87.9197  13.5905 0002072  86.7876 273.3494 13.19725143114068
ONEWEB-0648             
1 55811U 23029R   25187.91823238  .00000244  00000+0  62335-3 0  9996
2 55811  87.9042 358.4067 0002784  99.7074 260.4370 13.14505175114035
ONEWEB-0649             
1 55812U 23029S   25187.88859594 -.00000033  00000+0 -11576-3 0  9996
2 55812  87.9214  13.6179 0002346  95.7003 264.4397 13.19724893113388
ONEWEB-0650             
1 55813U 23029T   25187.95967682  .00000032  00000+0  46891-4 0  9999
2 55813  87.9216  13.6138 0002078  90.0533 270.0838 13.19725452113367
ONEWEB-0652             
1 55814U 23029U   25187.97532385 -.00000090  00000+0 -27835-3 0  9992
2 55814  87.9042 358.4053 0001674  92.0186 268.1136 13.14503384114709
ONEWEB-0653             
1 55815U 23029V   25187.88334093 -.00000183  00000+0 -52851-3 0  9998
2 55815  87.9044 358.4131 0001723  98.9591 261.1734 13.14502710114034
ONEWEB-0654             
1 55816U 23029W   25187.95469855 -.00000142  00000+0 -41868-3 0  9993
2 55816  87.9042 358.3986 0001422  94.1304 265.9988 13.14503301114069
